1 45213U 20012AM  23001.35780359  .00111147  00000-0  22458-2 0  9994
2 45213  53.0560 128.6501 0003819 120.5108 239.6275 15.45640873159975
1 45213U 20012AM  23001.61644192  .00106185  00000-0  21431-2 0  9993
2 45213  53.0562 127.4169 0003840 121.1566 238.9817 15.45697920160963
1 45213U 20012AM  23001.74575807  .00105814  00000-0  21337-2 0  9996
2 45213  53.0564 126.8003 0003852 121.0320 239.1064 15.45726038160987
1 45213U 20012AM  23002.32764832  .00121427  00000-0  24306-2 0  9996
2 45213  53.0566 124.0271 0003714 118.4443 241.6937 15.45866924160121
1 45213U 20012AM  23002.58624881  .00097510  00000-0  19559-2 0  9992
2 45213  53.0566 122.7936 0003711 118.7800 241.3579 15.45921863161114
1 45213U 20012AM  23002.91667824  .00079032  00000-0  15861-2 0  9994
2 45213  53.0560 121.2188 0003453 116.0991 284.0722 15.46006746  1309
1 45213U 20012AM  23003.00001157  .00052007  00000-0  10498-2 0  9990
2 45213  53.0562 120.8209 0003466 117.8059  26.4321 15.46021606160231
1 45213U 20012AM  23003.29735596  .00115198  00000-0  22917-2 0  9992
2 45213  53.0560 119.4033 0003560 115.8672 244.2702 15.46076739161222
1 45213U 20012AM  23003.29735596  .00115198  00000-0  22917-2 0  9992
2 45213  53.0560 119.4033 0003560 115.8672 244.2702 15.46076739160276
1 45213U 20012AM  23003.49128178  .00096340  00000-0  19202-2 0  9996
2 45213  53.0558 118.4780 0003563 116.0192 244.1182 15.46113363160304
1 45213U 20012AM  23004.59013372  .00155674  00000-0  30599-2 0  9995
2 45213  53.0563 113.2368 0003202 121.1135 239.0186 15.46247233161424
1 45213U 20012AM  23004.59013372  .00155674  00000-0  30599-2 0  9995
2 45213  53.0563 113.2368 0003202 121.1135 239.0186 15.46247233160478
1 45213U 20012AM  23005.30113118  .00080780  00000-0  16046-2 0  9990
2 45213  53.0572 109.8468 0003122 120.7327 239.3987 15.46297477161534
1 45213U 20012AM  23005.30113118  .00080780  00000-0  16046-2 0  9990
2 45213  53.0572 109.8468 0003122 120.7327 239.3987 15.46297477160588
1 45213U 20012AM  23006.27064423  .00046278  00000-0  92620-3 0  9998
2 45213  53.0578 105.2204 0003485 121.2241 238.9107 15.46322707160736
1 45213U 20012AM  23006.52917557  .00024138  00000-0  48866-3 0  9995
2 45213  53.0575 103.9865 0003261 120.8025 239.3303 15.46319463161726
1 45213U 20012AM  23006.52917557  .00024138  00000-0  48866-3 0  9995
2 45213  53.0575 103.9865 0003261 120.8025 239.3303 15.46319463160770
1 45213U 20012AM  23007.24012506  .00023745  00000-0  48025-3 0  9995
2 45213  53.0575 100.5944 0003273 121.8583 238.2743 15.46357330161833
1 45213U 20012AM  23007.30475610  .00023522  00000-0  47579-3 0  9997
2 45213  53.0575 100.2861 0003269 121.8297 238.3028 15.46360273161843
1 45213U 20012AM  23007.95106018  .00023351  00000-0  47195-3 0  9995
2 45213  53.0574  97.2029 0003188 120.6223 239.5098 15.46388614160993
1 45213U 20012AM  23008.53272235  .00023263  00000-0  46977-3 0  9994
2 45213  53.0568  94.4271 0003092 121.5859 238.5449 15.46415487162038
1 45213U 20012AM  23008.92049185  .00024189  00000-0  48776-3 0  9990
2 45213  53.0569  92.5766 0003064 122.5269 237.6034 15.46434294162095
1 45213U 20012AM  23009.24362919  .00022910  00000-0  46227-3 0  9998
2 45213  53.0569  91.0345 0003023 123.5738 236.5557 15.46449513161197
1 45213U 20012AM  23009.43751028  .00022987  00000-0  46364-3 0  9998
2 45213  53.0567  90.1094 0002995 122.8006 237.3289 15.46457840162175
1 45213U 20012AM  23009.88989437  .00024872  00000-0  50043-3 0  9998
2 45213  53.0568  87.9502 0002974 123.1508 236.9785 15.46481966162242
1 45213U 20012AM  23010.53614616  .00024044  00000-0  48358-3 0  9993
2 45213  53.0568  84.8660 0002927 122.6018 237.5272 15.46513567161397
1 45213U 20012AM  23010.60077056  .00023929  00000-0  48127-3 0  9997
2 45213  53.0567  84.5575 0002917 122.5641 237.5647 15.46516859162358
1 45213U 20012AM  23010.85926685  .00027043  00000-0  54226-3 0  9993
2 45213  53.0567  83.3234 0002920 123.0521 237.0767 15.46532554162396
1 45213U 20012AM  23011.57011920  .00027174  00000-0  54414-3 0  9994
2 45213  53.0565  79.9308 0002861 122.6383 237.4900 15.46570786162507
1 45213U 20012AM  23011.76398468  .00026479  00000-0  53027-3 0  9996
2 45213  53.0564  79.0053 0002852 123.0478 237.0803 15.46581963161588
1 45213U 20012AM  23011.82860614  .00026613  00000-0  53284-3 0  9995
2 45213  53.0564  78.6968 0002858 123.3222 236.8058 15.46585844162542
1 45213U 20012AM  23012.79791128  .00025396  00000-0  50801-3 0  9994
2 45213  53.0561  74.0698 0002809 124.5811 235.5461 15.46638989161746
1 45213U 20012AM  23012.86253045  .00027201  00000-0  54331-3 0  9992
2 45213  53.0562  73.7613 0002811 124.9116 235.2155 15.46643516162701
1 45213U 20012AM  23013.57333053  .00029057  00000-0  57883-3 0  9995
2 45213  53.0563  70.3683 0002765 125.2877 234.8388 15.46685243162816
1 45213U 20012AM  23014.15487879  .00031391  00000-0  62361-3 0  9997
2 45213  53.0566  67.5914 0002775 126.8768 233.2493 15.46724084161952
1 45213U 20012AM  23015.51176655  .00034271  00000-0  67759-3 0  9991
2 45213  53.0570  61.1129 0002675 125.6120 234.5136 15.46818635163117
1 45213U 20012AM  23015.51176655  .00034271  00000-0  67759-3 0  9991
2 45213  53.0570  61.1129 0002675 125.6120 234.5136 15.46818635162161
1 45213U 20012AM  23015.83482213  .00038893  00000-0  76662-3 0  9993
2 45213  53.0570  59.5703 0002656 125.9133 234.2121 15.46846706163168
1 45213U 20012AM  23016.41630856  .00037670  00000-0  74176-3 0  9996
2 45213  53.0569  56.7936 0002638 126.4937 233.6312 15.46891385163259
1 45213U 20012AM  23016.41630856  .00037670  00000-0  74176-3 0  9996
2 45213  53.0569  56.7936 0002638 126.4937 233.6312 15.46891385162304
1 45213U 20012AM  23016.80395763  .00033466  00000-0  65971-3 0  9996
2 45213  53.0568  54.9425 0002633 127.2652 232.8595 15.46916863163319
1 45213U 20012AM  23017.38542010  .00029956  00000-0  59098-3 0  9991
2 45213  53.0566  52.1656 0002620 128.4862 231.6379 15.46950689163406
1 45213U 20012AM  23017.38542010  .00029956  00000-0  59098-3 0  9991
2 45213  53.0566  52.1656 0002620 128.4862 231.6379 15.46950689162450
1 45213U 20012AM  23018.35449456  .00037731  00000-0  73975-3 0  9999
2 45213  53.0569  47.5375 0002548 128.9959 231.1275 15.47016290163554
1 45213U 20012AM  23018.35449456  .00037731  00000-0  73975-3 0  9999
2 45213  53.0569  47.5375 0002548 128.9959 231.1275 15.47016290162609
1 45213U 20012AM  23019.45272768  .00032283  00000-0  63301-3 0  9990
2 45213  53.0567  42.2914 0002482 129.3354 230.7873 15.47090151163720
1 45213U 20012AM  23019.45272768  .00032283  00000-0  63301-3 0  9990
2 45213  53.0567  42.2914 0002482 129.3354 230.7873 15.47090151162774
1 45213U 20012AM  23020.48630949  .00031236  00000-0  61136-3 0  9995
2 45213  53.0565  37.3538 0002533 130.0094 230.1135 15.47159472163886
1 45213U 20012AM  23020.48630949  .00031236  00000-0  61136-3 0  9995
2 45213  53.0565  37.3538 0002533 130.0094 230.1135 15.47159472162931
1 45213U 20012AM  23022.42415159  .00035808  00000-0  69598-3 0  9994
2 45213  53.0568  28.0948 0002492 132.7463 227.3754 15.47293664163230
1 45213U 20012AM  23023.71595292  .00031308  00000-0  60811-3 0  9994
2 45213  53.0572  21.9215 0002459 133.9035 226.2175 15.47379814163434
1 45213U 20012AM  23025.13685189  .00031148  00000-0  60314-3 0  9997
2 45213  53.0569  15.1303 0002489 136.5656 223.5548 15.47471261163651
1 45213U 20012AM  23025.39518891  .00028856  00000-0  55928-3 0  9997
2 45213  53.0569  13.8959 0002493 136.6709 223.4494 15.47484687164643
1 45213U 20012AM  23025.65352324  .00029289  00000-0  56721-3 0  9996
2 45213  53.0570  12.6612 0002488 137.5623 222.5577 15.47500420164687
1 45213U 20012AM  23026.36392926  .00032226  00000-0  62205-3 0  9996
2 45213  53.0572   9.2658 0002488 138.5037 221.6159 15.47545125164790
1 45213U 20012AM  23026.36392926  .00032226  00000-0  62205-3 0  9996
2 45213  53.0572   9.2658 0002488 138.5037 221.6159 15.47545125163845
1 45213U 20012AM  23027.33263210  .00027951  00000-0  53987-3 0  9993
2 45213  53.0575   4.6357 0002405 139.2211 220.8977 15.47602301164945
1 45213U 20012AM  23028.10756947  .00027516  00000-0  53084-3 0  9998
2 45213  53.0576   0.9308 0002424 140.4800 219.6384 15.47645106164117
1 45213U 20012AM  23028.23672334  .00026727  00000-0  51579-3 0  9999
2 45213  53.0575   0.3135 0002417 140.4282 219.6902 15.47652259165084
1 45213U 20012AM  23029.14078688  .00024432  00000-0  47163-3 0  9997
2 45213  53.0572 355.9905 0002467 143.6138 216.5037 15.47697132164279
1 45213U 20012AM  23029.91567916  .00021715  00000-0  41976-3 0  9996
2 45213  53.0568 352.2877 0002514 147.2257 212.8907 15.47731341165342
1 45213U 20012AM  23030.17397274  .00022902  00000-0  44199-3 0  9993
2 45213  53.0571 351.0517 0002419 145.0759 215.0407 15.47743184164438
1 45213U 20012AM  23030.36769148  .00022090  00000-0  42654-3 0  9999
2 45213  53.0572 350.1246 0002350 144.6082 215.5082 15.47751983165415
1 45213U 20012AM  23030.88426973  .00020972  00000-0  40511-3 0  9999
2 45213  53.0575 347.6541 0002387 146.4182 213.6977 15.47774440165491
1 45213U 20012AM  23031.14255559  .00022308  00000-0  43013-3 0  9994
2 45213  53.0574 346.4195 0002357 146.6574 213.4582 15.47787015165533
1 45213U 20012AM  23031.85283119  .00022800  00000-0  43887-3 0  9991
2 45213  53.0576 343.0225 0002361 148.2508 211.8642 15.47822620165645
1 45213U 20012AM  23032.11110932  .00023705  00000-0  45570-3 0  9999
2 45213  53.0571 341.7878 0002334 148.3817 211.7330 15.47835475164737
1 45213U 20012AM  23032.17567826  .00023727  00000-0  45605-3 0  9996
2 45213  53.0572 341.4792 0002324 148.4876 211.6271 15.47839427165695
1 45213U 20012AM  23033.27333391  .00027705  00000-0  52980-3 0  9990
2 45213  53.0572 336.2302 0002339 151.2106 208.9031 15.47895738165867
1 45213U 20012AM  23033.85442953  .00022044  00000-0  42318-3 0  9994
2 45213  53.0573 333.4505 0002427 155.3596 204.7527 15.47921453165002
1 45213U 20012AM  23034.24182098  .00025807  00000-0  49339-3 0  9999
2 45213  53.0570 331.5980 0002308 154.3031 205.8091 15.47942988166012
